start=new Date('2023-04-26T00:00:00.000Z').valueOf();
sats=[{"TIME_SYSTEM":"UTC","MEAN_MOTION_DOT":"0.00002054","EPOCH":"2023-04-24T22:45:44.595648","APOAPSIS":"540.451","MEAN_ANOMALY":"280.9655","SEMIMAJOR_AXIS":"6917.804","PERIOD":"95.436","RA_OF_ASC_NODE":"1.5551","FILE":"3894092","MEAN_MOTION":"15.08865032","ELEMENT_SET_NO":"999","OBJECT_NAME":"STARLINK-5233","TLE_LINE1":"1 54160U 22141D   23114.94843282  .00002054  00000-0  14701-3 0  9994","LAUNCH_DATE":"2022-10-28","ARG_OF_PERICENTER":"79.1465","PERIAPSIS":"538.887","MEAN_MOTION_DDOT":"0.0000000000000","GP_ID":"230745299","RCS_SIZE":"LARGE","OBJECT_ID":"2022-141D","OBJECT_TYPE":"PAYLOAD","INCLINATION":"53.2199","NORAD_CAT_ID":"54160","REV_AT_EPOCH":"2787","BSTAR":"0.00014701000000","ECCENTRICITY":"0.00011300","SITE":"AFWTR","TLE_LINE2":"2 54160  53.2199   1.5551 0001130  79.1465 280.9655 15.08865032 27878","CENTER_NAME":"EARTH","CLASSIFICATION_TYPE":"U","EPHEMERIS_TYPE":"0","MEAN_ELEMENT_THEORY":"SGP4","COUNTRY_CODE":"US","DECAY_DATE":null,"REF_FRAME":"TEME"},{"GP_ID":"230746050","MEAN_MOTION_DDOT":"0.0000000000000","INCLINATION":"53.2178","OBJECT_ID":"2022-141E","RCS_SIZE":"LARGE","OBJECT_TYPE":"PAYLOAD","PERIAPSIS":"538.895","LAUNCH_DATE":"2022-10-28","ARG_OF_PERICENTER":"96.7540","TLE_LINE2":"2 54161  53.2178  45.4097 0001041  96.7540 263.3571 15.08882687 27280","CENTER_NAME":"EARTH","EPHEMERIS_TYPE":"0","MEAN_ELEMENT_THEORY":"SGP4","CLASSIFICATION_TYPE":"U","SITE":"AFWTR","COUNTRY_CODE":"US","DECAY_DATE":null,"REF_FRAME":"TEME","REV_AT_EPOCH":"2728","NORAD_CAT_ID":"54161","BSTAR":"0.00039743000000","ECCENTRICITY":"0.00010410","SEMIMAJOR_AXIS":"6917.750","MEAN_ANOMALY":"263.3571","PERIOD":"95.435","APOAPSIS":"540.335","RA_OF_ASC_NODE":"45.4097","TIME_SYSTEM":"UTC","MEAN_MOTION_DOT":"0.00006050","EPOCH":"2023-04-25T05:35:46.877280","MEAN_MOTION":"15.08882687","OBJECT_NAME":"STARLINK-5269","ELEMENT_SET_NO":"999","TLE_LINE1":"1 54161U 22141E   23115.23318145  .00006050  00000-0  39743-3 0  9996","FILE":"3894092"},{"MEAN_ANOMALY":"271.3895","SEMIMAJOR_AXIS":"6917.805","PERIOD":"95.436","APOAPSIS":"540.505","RA_OF_ASC_NODE":"45.3586","TIME_SYSTEM":"UTC","MEAN_MOTION_DOT":"0.00003289","EPOCH":"2023-04-25T05:25:11.618688","MEAN_MOTION":"15.08864630","ELEMENT_SET_NO":"999","OBJECT_NAME":"STARLINK-5273","TLE_LINE1":"1 54162U 22141F   23115.22582892  .00003289  00000-0  22449-3 0  9994","FILE":"3894092","GP_ID":"230744798","MEAN_MOTION_DDOT":"0.0000000000000","INCLINATION":"53.2173","OBJECT_ID":"2022-141F","RCS_SIZE":"LARGE","OBJECT_TYPE":"PAYLOAD","PERIAPSIS":"538.835","LAUNCH_DATE":"2022-10-28","ARG_OF_PERICENTER":"88.7235","TLE_LINE2":"2 54162  53.2173  45.3586 0001207  88.7235 271.3895 15.08864630 27280","CENTER_NAME":"EARTH","EPHEMERIS_TYPE":"0","MEAN_ELEMENT_THEORY":"SGP4","CLASSIFICATION_TYPE":"U","SITE":"AFWTR","COUNTRY_CODE":"US","DECAY_DATE":null,"REF_FRAME":"TEME","REV_AT_EPOCH":"2728","NORAD_CAT_ID":"54162","ECCENTRICITY":"0.00012070","BSTAR":"0.00022449000000"},{"SITE":"AFWTR","MEAN_ELEMENT_THEORY":"SGP4","EPHEMERIS_TYPE":"0","CLASSIFICATION_TYPE":"U","TLE_LINE2":"2 54163  53.2183  35.1624 0001146  83.4544 276.6579 15.08893988 27431","CENTER_NAME":"EARTH","REF_FRAME":"TEME","DECAY_DATE":null,"COUNTRY_CODE":"US","NORAD_CAT_ID":"54163","REV_AT_EPOCH":"2743","BSTAR":"0.00079463000000","ECCENTRICITY":"0.00011460","MEAN_MOTION_DDOT":"0.0000000000000","GP_ID":"230744548","OBJECT_TYPE":"PAYLOAD","RCS_SIZE":"LARGE","OBJECT_ID":"2022-141G","INCLINATION":"53.2183","ARG_OF_PERICENTER":"83.4544","LAUNCH_DATE":"2022-10-28","PERIAPSIS":"538.788","MEAN_MOTION":"15.08893988","TLE_LINE1":"1 54163U 22141G   23115.30403399  .00012400  00000-0  79463-3 0  9991","OBJECT_NAME":"STARLINK-5161","ELEMENT_SET_NO":"999","FILE":"3894092","APOAPSIS":"540.373","PERIOD":"95.434","MEAN_ANOMALY":"276.6579","SEMIMAJOR_AXIS":"6917.715","RA_OF_ASC_NODE":"35.1624","MEAN_MOTION_DOT":"0.00012400","TIME_SYSTEM":"UTC","EPOCH":"2023-04-25T07:17:48.536736"},{"FILE":"3894092","ELEMENT_SET_NO":"999","OBJECT_NAME":"STARLINK-5278","TLE_LINE1":"1 54164U 22141H   23115.04276919  .00008431  00000-0  54659-3 0  9998","MEAN_MOTION":"15.08878174","EPOCH":"2023-04-25T01:01:35.258016","TIME_SYSTEM":"UTC","MEAN_MOTION_DOT":"0.00008431","RA_OF_ASC_NODE":"36.3737","MEAN_ANOMALY":"258.1040","SEMIMAJOR_AXIS":"6917.764","PERIOD":"95.435","APOAPSIS":"540.464","BSTAR":"0.00054659000000","ECCENTRICITY":"0.00012080","REV_AT_EPOCH":"2739","NORAD_CAT_ID":"54164","COUNTRY_CODE":"US","DECAY_DATE":null,"REF_FRAME":"TEME","TLE_LINE2":"2 54164  53.2184  36.3737 0001208 102.0088 258.1040 15.08878174 27394","CENTER_NAME":"EARTH","MEAN_ELEMENT_THEORY":"SGP4","CLASSIFICATION_TYPE":"U","EPHEMERIS_TYPE":"0","SITE":"AFWTR","PERIAPSIS":"538.793","LAUNCH_DATE":"2022-10-28","ARG_OF_PERICENTER":"102.0088","INCLINATION":"53.2184","OBJECT_ID":"2022-141H","RCS_SIZE":"LARGE","OBJECT_TYPE":"PAYLOAD","GP_ID":"230745800","MEAN_MOTION_DDOT":"0.0000000000000"},{"MEAN_MOTION":"15.08862627","TLE_LINE1":"1 54165U 22141J   23115.22214582  .00004219  00000-0  28281-3 0  9999","ELEMENT_SET_NO":"999","OBJECT_NAME":"STARLINK-5279","FILE":"3894092","PERIOD":"95.436","SEMIMAJOR_AXIS":"6917.811","MEAN_ANOMALY":"258.3928","APOAPSIS":"540.643","RA_OF_ASC_NODE":"45.3335","MEAN_MOTION_DOT":"0.00004219","TIME_SYSTEM":"UTC","EPOCH":"2023-04-25T05:19:53.398848","EPHEMERIS_TYPE":"0","MEAN_ELEMENT_THEORY":"SGP4","CLASSIFICATION_TYPE":"U","TLE_LINE2":"2 54165  53.2173  45.3335 0001397 101.7221 258.3928 15.08862627 27282","CENTER_NAME":"EARTH","SITE":"AFWTR","DECAY_DATE":null,"REF_FRAME":"TEME","COUNTRY_CODE":"US","REV_AT_EPOCH":"2728","NORAD_CAT_ID":"54165","ECCENTRICITY":"0.00013970","BSTAR":"0.00028281000000","GP_ID":"230745550","MEAN_MOTION_DDOT":"0.0000000000000","INCLINATION":"53.2173","OBJECT_TYPE":"PAYLOAD","OBJECT_ID":"2022-141J","RCS_SIZE":"LARGE","PERIAPSIS":"538.710","ARG_OF_PERICENTER":"101.7221","LAUNCH_DATE":"2022-10-28"},{"OBJECT_TYPE":"PAYLOAD","OBJECT_ID":"2022-141K","RCS_SIZE":"LARGE","INCLINATION":"53.2189","MEAN_MOTION_DDOT":"0.0000000000000","GP_ID":"230744298","ARG_OF_PERICENTER":"111.0613","LAUNCH_DATE":"2022-10-28","PERIAPSIS":"538.744","REF_FRAME":"TEME","DECAY_DATE":null,"COUNTRY_CODE":"US","SITE":"AFWTR","MEAN_ELEMENT_THEORY":"SGP4","EPHEMERIS_TYPE":"0","CLASSIFICATION_TYPE":"U","CENTER_NAME":"EARTH","TLE_LINE2":"2 54166  53.2189  36.0338 0001302 111.0613 249.0519 15.08873061 27406","BSTAR":"0.00044594000000","ECCENTRICITY":"0.00013020","NORAD_CAT_ID":"54166","REV_AT_EPOCH":"2740","RA_OF_ASC_NODE":"36.0338","APOAPSIS":"540.545","PERIOD":"95.435","SEMIMAJOR_AXIS":"6917.779","MEAN_ANOMALY":"249.0519","EPOCH":"2023-04-25T02:26:21.308928","MEAN_MOTION_DOT":"0.00006823","TIME_SYSTEM":"UTC","TLE_LINE1":"1 54166U 22141K   23115.10163552  .00006823  00000-0  44594-3 0  9995","OBJECT_NAME":"STARLINK-5280","ELEMENT_SET_NO":"999","MEAN_MOTION":"15.08873061","FILE":"3894092"},{"RA_OF_ASC_NODE":"43.5194","MEAN_ANOMALY":"183.2687","SEMIMAJOR_AXIS":"6917.919","PERIOD":"95.438","APOAPSIS":"540.849","EPOCH":"2023-04-25T14:00:01.999872","TIME_SYSTEM":"UTC","MEAN_MOTION_DOT":"0.00037362","ELEMENT_SET_NO":"999","OBJECT_NAME":"STARLINK-5243","TLE_LINE1":"1 54167U 22141L   23115.58335648  .00037362  00000-0  23540-2 0  9994","MEAN_MOTION":"15.08827312","FILE":"3893931","INCLINATION":"53.2174","RCS_SIZE":"LARGE","OBJECT_ID":"2022-141L","OBJECT_TYPE":"PAYLOAD","GP_ID":"230715856","MEAN_MOTION_DDOT":"0.0000000000000","PERIAPSIS":"538.720","LAUNCH_DATE":"2022-10-28","ARG_OF_PERICENTER":"79.8140","COUNTRY_CODE":"US","DECAY_DATE":null,"REF_FRAME":"TEME","TLE_LINE2":"2 54167  53.2174  43.5194 0001539  79.8140 183.2687 15.08827312 27337","CENTER_NAME":"EARTH","CLASSIFICATION_TYPE":"U","EPHEMERIS_TYPE":"0","MEAN_ELEMENT_THEORY":"SGP4","SITE":"AFWTR","BSTAR":"0.00235400000000","ECCENTRICITY":"0.00015390","REV_AT_EPOCH":"2733","NORAD_CAT_ID":"54167"},{"EPOCH":"2023-04-25T02:21:02.396160","MEAN_MOTION_DOT":"0.00001191","TIME_SYSTEM":"UTC","RA_OF_ASC_NODE":"36.0113","PERIOD":"95.435","SEMIMAJOR_AXIS":"6917.752","MEAN_ANOMALY":"260.1915","APOAPSIS":"540.428","FILE":"3894092","TLE_LINE1":"1 54168U 22141M   23115.09794440  .00001191  00000-0  92818-4 0  9997","OBJECT_NAME":"STARLINK-5245","ELEMENT_SET_NO":"999","MEAN_MOTION":"15.08881920","PERIAPSIS":"538.806","ARG_OF_PERICENTER":"99.9209","LAUNCH_DATE":"2022-10-28","INCLINATION":"53.2201","OBJECT_TYPE":"PAYLOAD","OBJECT_ID":"2022-141M","RCS_SIZE":"LARGE","GP_ID":"230745300","MEAN_MOTION_DDOT":"0.0000000000000","ECCENTRICITY":"0.00011720","BSTAR":"0.00009281800000","REV_AT_EPOCH":"2740","NORAD_CAT_ID":"54168","DECAY_DATE":null,"REF_FRAME":"TEME","COUNTRY_CODE":"US","CLASSIFICATION_TYPE":"U","EPHEMERIS_TYPE":"0","MEAN_ELEMENT_THEORY":"SGP4","TLE_LINE2":"2 54168  53.2201  36.0113 0001172  99.9209 260.1915 15.08881920 27401","CENTER_NAME":"EARTH","SITE":"AFWTR"},{"RA_OF_ASC_NODE":"35.7012","APOAPSIS":"540.565","MEAN_ANOMALY":"265.6366","SEMIMAJOR_AXIS":"6917.740","PERIOD":"95.435","EPOCH":"2023-04-25T01:06:46.518336","TIME_SYSTEM":"UTC","MEAN_MOTION_DOT":"0.00023025","OBJECT_NAME":"STARLINK-5282","ELEMENT_SET_NO":"999","TLE_LINE1":"1 54169U 22141N   23115.04637174  .00023025  00000-0  14582-2 0  9993","MEAN_MOTION":"15.08885952","FILE":"3894092","RCS_SIZE":"LARGE","OBJECT_ID":"2022-141N","OBJECT_TYPE":"PAYLOAD","INCLINATION":"53.2175","MEAN_MOTION_DDOT":"0.0000000000000","GP_ID":"230746051","LAUNCH_DATE":"2022-10-28","ARG_OF_PERICENTER":"94.4785","PERIAPSIS":"538.645","COUNTRY_CODE":"US","DECAY_DATE":null,"REF_FRAME":"TEME","SITE":"AFWTR","CENTER_NAME":"EARTH","TLE_LINE2":"2 54169  53.2175  35.7012 0001388  94.4785 265.6366 15.08885952 27403","MEAN_ELEMENT_THEORY":"SGP4","CLASSIFICATION_TYPE":"U","EPHEMERIS_TYPE":"0","BSTAR":"0.00145820000000","ECCENTRICITY":"0.00013880","NORAD_CAT_ID":"54169","REV_AT_EPOCH":"2740"}];
